{"type": "FeatureCollection", "features": [ {"type": "Feature", "properties": {"norad_id": 41556, "name": "ZIYUAN 3-02 (ZY 3-02)", "group": "resource", "lat": -33.10484052560339, "lon": -116.95159305843772, "alt_km": 501.0834388303874, "timestamp": "2025-12-19T20:42:59.738472+00:00", "meta": {"OBJECT_NAME": "ZIYUAN 3-02 (ZY 3-02)", "OBJECT_ID": "2016-033A", "EPOCH": "2025-12-19T07:09:04.037760", "MEAN_MOTION": 15.21144897, "ECCENTRICITY": 0.00109776, "INCLINATION": 97.4043, "RA_OF_ASC_NODE": 67.3567, "ARG_OF_PERICENTER": 221.5726, "MEAN_ANOMALY": 138.4676, "EPHEMERIS_TYPE": 0, "CLASSIFICATION_TYPE": "U", "NORAD_CAT_ID": 41556, "ELEMENT_SET_NO": 999, "REV_AT_EPOCH": 53063, "BSTAR": 0.0002551583, "MEAN_MOTION_DOT": 5.622e-05, "MEAN_MOTION_DDOT": 0}, "tle": {"line1": "1 41556U 16033A   25353.29796340  .00005622  00000+0  25516-3 0  9998", "line2": "2 41556  97.4043  67.3567 0010977 221.5726 138.4676 15.21144897530637"}}, "geometry": {"type": "Point", "coordinates": [-116.95159305843772, -33.10484052560339]}}, {"type": "Feature", "properties": {"norad_id": 41599, "name": "CARTOSAT-2C", "group": "resource", "lat": 74.59671149038833, "lon": -100.49143181971594, "alt_km": 497.74800630868504, "timestamp": "2025-12-19T20:42:59.738483+00:00", "meta": {"OBJECT_NAME": "CARTOSAT-2C", "OBJECT_ID": "2016-040A", "EPOCH": "2025-12-19T07:37:01.505856", "MEAN_MOTION": 15.19169054, "ECCENTRICITY": 0.00110701, "INCLINATION": 97.4763, "RA_OF_ASC_NODE": 50.501, "ARG_OF_PERICENTER": 42.6627, "MEAN_ANOMALY": 317.5465, "EPHEMERIS_TYPE": 0, "CLASSIFICATION_TYPE": "U", "NORAD_CAT_ID": 41599, "ELEMENT_SET_NO": 999, "REV_AT_EPOCH": 52640, "BSTAR": 0.00010857929, "MEAN_MOTION_DOT": 2.217e-05, "MEAN_MOTION_DDOT": 0}, "tle": {"line1": "1 41599U 16040A   25353.31737854  .00002217  00000+0  10858-3 0  9991", "line2": "2 41599  97.4763  50.5010 0011070  42.6627 317.5465 15.19169054526402"}}, "geometry": {"type": "Point", "coordinates": [-100.49143181971594, 74.59671149038833]}}, {"type": "Feature", "properties": {"norad_id": 41601, "name": "SKYSAT-C1", "group": "resource", "lat": 37.18051690167321, "lon": -144.1909459104225, "alt_km": 466.12723979727707, "timestamp": "2025-12-19T20:42:59.738493+00:00", "meta": {"OBJECT_NAME": "SKYSAT-C1", "OBJECT_ID": "2016-040C", "EPOCH": "2025-12-19T01:17:41.366400", "MEAN_MOTION": 15.32701107, "ECCENTRICITY": 0.00016294, "INCLINATION": 96.9815, "RA_OF_ASC_NODE": 29.712, "ARG_OF_PERICENTER": 353.8506, "MEAN_ANOMALY": 6.2717, "EPHEMERIS_TYPE": 0, "CLASSIFICATION_TYPE": "U", "NORAD_CAT_ID": 41601, "ELEMENT_SET_NO": 999, "REV_AT_EPOCH": 53024, "BSTAR": 0.00024980143, "MEAN_MOTION_DOT": 7.817e-05, "MEAN_MOTION_DDOT": 0}, "tle": {"line1": "1 41601U 16040C   25353.05395100  .00007817  00000+0  24980-3 0  9992", "line2": "2 41601  96.9815  29.7120 0001629 353.8506   6.2717 15.32701107530245"}}, "geometry": {"type": "Point", "coordinates": [-144.1909459104225, 37.18051690167321]}}, {"type": "Feature", "properties": {"norad_id": 41603, "name": "LAPAN-A3", "group": "resource", "lat": -76.62060536329595, "lon": 139.34450065032817, "alt_km": 474.1322559995224, "timestamp": "2025-12-19T20:42:59.738504+00:00", "meta": {"OBJECT_NAME": "LAPAN-A3", "OBJECT_ID": "2016-040E", "EPOCH": "2025-12-19T07:02:45.358656", "MEAN_MOTION": 15.31602395, "ECCENTRICITY": 0.00090292, "INCLINATION": 97.1423, "RA_OF_ASC_NODE": 350.6115, "ARG_OF_PERICENTER": 307.3715, "MEAN_ANOMALY": 52.6704, "EPHEMERIS_TYPE": 0, "CLASSIFICATION_TYPE": "U", "NORAD_CAT_ID": 41603, "ELEMENT_SET_NO": 999, "REV_AT_EPOCH": 52726, "BSTAR": 0.00010209639, "MEAN_MOTION_DOT": 3.044e-05, "MEAN_MOTION_DDOT": 0}, "tle": {"line1": "1 41603U 16040E   25353.29358054  .00003044  00000+0  10210-3 0  9996", "line2": "2 41603  97.1423 350.6115 0009029 307.3715  52.6704 15.31602395527260"}}, "geometry": {"type": "Point", "coordinates": [139.34450065032817, -76.62060536329595]}}, {"type": "Feature", "properties": {"norad_id": 41604, "name": "BIROS", "group": "resource", "lat": 14.02736349805549, "lon": -152.6279033941601, "alt_km": 294.7307053227805, "timestamp": "2025-12-19T20:42:59.738515+00:00", "meta": {"OBJECT_NAME": "BIROS", "OBJECT_ID": "2016-040F", "EPOCH": "2025-12-19T01:55:23.148192", "MEAN_MOTION": 15.92127149, "ECCENTRICITY": 0.00035441, "INCLINATION": 97.0685, "RA_OF_ASC_NODE": 24.7778, "ARG_OF_PERICENTER": 134.1983, "MEAN_ANOMALY": 225.9584, "EPHEMERIS_TYPE": 0, "CLASSIFICATION_TYPE": "U", "NORAD_CAT_ID": 41604, "ELEMENT_SET_NO": 999, "REV_AT_EPOCH": 52973, "BSTAR": 0.00053351864, "MEAN_MOTION_DOT": 0.00176218, "MEAN_MOTION_DDOT": 1.3459503e-05}, "tle": {"line1": "1 41604U 16040F   25353.08012903  .00176218  13460-4  53352-3 0  9991", "line2": "2 41604  97.0685  24.7778 0003544 134.1983 225.9584 15.92127149529734"}}, "geometry": {"type": "Point", "coordinates": [-152.6279033941601, 14.02736349805549]}}, {"type": "Feature", "properties": {"norad_id": 41727, "name": "GAOFEN-3", "group": "resource", "lat": -81.41426757060432, "lon": 101.08244428239406, "alt_km": 759.3054900769102, "timestamp": "2025-12-19T20:42:59.738525+00:00", "meta": {"OBJECT_NAME": "GAOFEN-3", "OBJECT_ID": "2016-049A", "EPOCH": "2025-12-19T06:09:21.076416", "MEAN_MOTION": 14.42215707, "ECCENTRICITY": 0.00012811, "INCLINATION": 98.4033, "RA_OF_ASC_NODE": 358.7439, "ARG_OF_PERICENTER": 58.598, "MEAN_ANOMALY": 301.5335, "EPHEMERIS_TYPE": 0, "CLASSIFICATION_TYPE": "U", "NORAD_CAT_ID": 41727, "ELEMENT_SET_NO": 999, "REV_AT_EPOCH": 49271, "BSTAR": 7.2660078e-05, "MEAN_MOTION_DOT": 1.96e-06, "MEAN_MOTION_DDOT": 0}, "tle": {"line1": "1 41727U 16049A   25353.25649394  .00000196  00000+0  72660-4 0  9991", "line2": "2 41727  98.4033 358.7439 0001281  58.5980 301.5335 14.42215707492712"}}, "geometry": {"type": "Point", "coordinates": [101.08244428239406, -81.41426757060432]}}, {"type": "Feature", "properties": {"norad_id": 41771, "name": "SKYSAT-C4", "group": "resource", "lat": -33.958211052259074, "lon": 23.408101391051872, "alt_km": 446.55817175220545, "timestamp": "2025-12-19T20:42:59.738536+00:00", "meta": {"OBJECT_NAME": "SKYSAT-C4", "OBJECT_ID": "2016-058B", "EPOCH": "2025-12-19T00:37:25.370976", "MEAN_MOTION": 15.42424103, "ECCENTRICITY": 0.00020919, "INCLINATION": 96.9363, "RA_OF_ASC_NODE": 17.9086, "ARG_OF_PERICENTER": 130.2828, "MEAN_ANOMALY": 229.8603, "EPHEMERIS_TYPE": 0, "CLASSIFICATION_TYPE": "U", "NORAD_CAT_ID": 41771, "ELEMENT_SET_NO": 999, "REV_AT_EPOCH": 51764, "BSTAR": 0.00028649124, "MEAN_MOTION_DOT": 0.00012311, "MEAN_MOTION_DDOT": 0}, "tle": {"line1": "1 41771U 16058B   25353.02598809  .00012311  00000+0  28649-3 0  9998", "line2": "2 41771  96.9363  17.9086 0002091 130.2828 229.8603 15.42424103517644"}}, "geometry": {"type": "Point", "coordinates": [23.408101391051872, -33.958211052259074]}}, {"type": "Feature", "properties": {"norad_id": 41772, "name": "SKYSAT-C5", "group": "resource", "lat": 29.241514254601306, "lon": 33.330699568355634, "alt_km": 464.23838843595786, "timestamp": "2025-12-19T20:42:59.738546+00:00", "meta": {"OBJECT_NAME": "SKYSAT-C5", "OBJECT_ID": "2016-058C", "EPOCH": "2025-12-19T01:48:05.857920", "MEAN_MOTION": 15.33986373, "ECCENTRICITY": 0.00037591, "INCLINATION": 97.0752, "RA_OF_ASC_NODE": 36.5627, "ARG_OF_PERICENTER": 262.6771, "MEAN_ANOMALY": 97.4045, "EPHEMERIS_TYPE": 0, "CLASSIFICATION_TYPE": "U", "NORAD_CAT_ID": 41772, "ELEMENT_SET_NO": 999, "REV_AT_EPOCH": 51613, "BSTAR": 0.00024219722, "MEAN_MOTION_DOT": 7.891e-05, "MEAN_MOTION_DDOT": 0}, "tle": {"line1": "1 41772U 16058C   25353.07506780  .00007891  00000+0  24220-3 0  9999", "line2": "2 41772  97.0752  36.5627 0003759 262.6771  97.4045 15.33986373516130"}}, "geometry": {"type": "Point", "coordinates": [33.330699568355634, 29.241514254601306]}}, {"type": "Feature", "properties": {"norad_id": 41773, "name": "SKYSAT-C2", "group": "resource", "lat": 56.61526525320233, "lon": -151.1104619892871, "alt_km": 449.13285175172587, "timestamp": "2025-12-19T20:42:59.738556+00:00", "meta": {"OBJECT_NAME": "SKYSAT-C2", "OBJECT_ID": "2016-058D", "EPOCH": "2025-12-18T23:52:40.992960", "MEAN_MOTION": 15.37407901, "ECCENTRICITY": 0.00035522, "INCLINATION": 97.0351, "RA_OF_ASC_NODE": 17.257, "ARG_OF_PERICENTER": 17.3368, "MEAN_ANOMALY": 342.7999, "EPHEMERIS_TYPE": 0, "CLASSIFICATION_TYPE": "U", "NORAD_CAT_ID": 41773, "ELEMENT_SET_NO": 999, "REV_AT_EPOCH": 51732, "BSTAR": 0.0002611674, "MEAN_MOTION_DOT": 9.504e-05, "MEAN_MOTION_DDOT": 0}, "tle": {"line1": "1 41773U 16058D   25352.99491890  .00009504  00000+0  26117-3 0  9995", "line2": "2 41773  97.0351  17.2570 0003552  17.3368 342.7999 15.37407901517322"}}, "geometry": {"type": "Point", "coordinates": [-151.1104619892871, 56.61526525320233]}}, {"type": "Feature", "properties": {"norad_id": 41774, "name": "SKYSAT-C3", "group": "resource", "lat": 44.68231510530618, "lon": -145.81392166823423, "alt_km": 427.6118206633346, "timestamp": "2025-12-19T20:42:59.738567+00:00", "meta": {"OBJECT_NAME": "SKYSAT-C3", "OBJECT_ID": "2016-058E", "EPOCH": "2025-12-19T01:28:38.745984", "MEAN_MOTION": 15.44615791, "ECCENTRICITY": 0.00018725, "INCLINATION": 96.9289, "RA_OF_ASC_NODE": 26.5138, "ARG_OF_PERICENTER": 107.4205, "MEAN_ANOMALY": 252.725, "EPHEMERIS_TYPE": 0, "CLASSIFICATION_TYPE": "U", "NORAD_CAT_ID": 41774, "ELEMENT_SET_NO": 999, "REV_AT_EPOCH": 51823, "BSTAR": 0.00033013683, "MEAN_MOTION_DOT": 0.00015292, "MEAN_MOTION_DDOT": 0}, "tle": {"line1": "1 41774U 16058E   25353.06155956  .00015292  00000+0  33014-3 0  9990", "line2": "2 41774  96.9289  26.5138 0001872 107.4205 252.7250 15.44615791518235"}}, "geometry": {"type": "Point", "coordinates": [-145.81392166823423, 44.68231510530618]}}]}